LEMUR-1                 
1 40044U 14033AL  26178.66880392  .00001858  00000+0  21808-3 0  9992
2 40044  97.7886 328.2414 0049178  45.0824 315.4365 14.85283177647027
LEMUR-2-GREENBERG       
1 42837U 17042N   26178.73724055  .00015731  00000+0  51648-3 0  9998
2 42837  97.3815 359.3154 0007555 333.6954  26.3903 15.31642779490005
LEMUR-2-ANDIS           
1 42838U 17042P   26178.80726573  .00020796  00000+0  60835-3 0  9999
2 42838  97.3671 359.6060 0007375 330.7052  29.3777 15.35260360490088
LEMUR-2-MONSON          
1 42839U 17042Q   26178.76897657  .00015743  00000+0  57285-3 0  9998
2 42839  97.4078 359.3030 0005405 324.0937  35.9939 15.28306472489780
LEMUR-2-FURIAUS         
1 42840U 17042R   26178.73838365  .00017005  00000+0  57648-3 0  9994
2 42840  97.3764 357.2479 0007438  35.0260 325.1469 15.30589303489829
LEMUR-2-PETERG          
1 42841U 17042S   26178.47192485  .00025040  00000+0  75447-3 0  9997
2 42841  97.3987   3.5214 0002728 308.0048  52.0948 15.34313191490014
LEMUR-2-DEMBITZ         
1 42842U 17042T   26178.95417467  .00015055  00000+0  51066-3 0  9997
2 42842  97.3820   0.4943 0005772 350.0034  10.1091 15.30608431489999
LEMUR-2-ZACHARY         
1 42845U 17042W   26178.77293417  .00046912  00000+0  80105-3 0  9999
2 42845  97.3586  10.6408 0002312 340.8500  19.2665 15.51176492490845
LEMUR-2-AMANDA-SVANTE   
1 48269U 21034B   26178.72527878  .00029645  00000+0  87535-3 0  9995
2 48269  97.5766 257.2920 0003412 181.0802 179.0434 15.34917220282675
LEMUR-2-SPECIAL-K       
1 48273U 21034F   26178.75713092  .00172120  00000+0  15461-2 0  9993
2 48273  97.5650 266.4026 0005127 221.3302 138.7571 15.67706113283341
LEMUR-2-EMBRIONOVIS     
1 56970U 23084AQ  26178.87409563  .00013860  00000+0  37483-3 0  9995
2 56970  97.6294 323.4856 0007449 275.9046  84.1349 15.37811725169324
LEMUR-2-DEVERILL-M-T    
1 57391U 23100F   26178.63088921  .00023765  00000+0  59208-3 0  9991
2 57391  99.4468 220.4077 0005348  13.0218 347.1158 15.40255267162852
LEMUR-2-BASS            
1 58259U 23174D   26178.77926096  .00017726  00000+0  39745-3 0  9999
2 58259  97.3854 263.6410 0008077 130.2996 229.8959 15.43440287146992
LEMUR-2-JK0903EM1407    
1 58336U 23174CJ  26178.84715512  .00027170  00000+0  44869-3 0  9999
2 58336  97.3932 269.6205 0005004  88.5300 271.6526 15.52216846147385
LEMUR-2-MJR092620       
1 58340U 23174CN  26178.78023800  .00019356  00000+0  40809-3 0  9996
2 58340  97.3985 269.0062 0006782  86.1191 274.0833 15.45256839147284
LEMUR-2-NIMBUS2000      
1 58899U 24022A   26178.86373662  .00021911  00000+0  54195-3 0  9994
2 58899  97.4101  29.0013 0010173  83.9760 276.2645 15.40419736133912
LEMUR-2-VALHALLA        
1 58900U 24022B   26178.86251588  .00016013  00000+0  40253-3 0  9996
2 58900  97.4101  28.9846 0010696  79.7158 280.5293 15.39987720133919
LEMUR-2-CAEL            
1 58903U 24022E   26178.86324957  .00017061  00000+0  41065-3 0  9996
2 58903  97.4080  29.9400 0008866  65.8967 294.3206 15.41312089133982
LEMUR-2-JOHNNYTRUONG    
1 59146U 24043BA  26178.85652545  .00039380  00000+0  46431-3 0  9995
2 59146  97.5376 331.2261 0004792 144.7377 215.4198 15.61260013129701
LEMUR-2-TOMATOKECHUP    
1 60471U 24149D   26178.79043979  .00010788  00000+0  30756-3 0  9997
2 60471  97.3805 260.8648 0002335 155.5188 204.6167 15.36245461103795
LEMUR-2-STELLA          
1 60533U 24149BT  26178.80346839  .00010315  00000+0  60382-3 0  9993
2 60533  97.6741 261.3055 0001330  99.3913 260.7468 15.12025286102105
LEMUR-2-MARHISYAM       
1 60536U 24149BW  26178.78768619  .00010732  00000+0  63785-3 0  9990
2 60536  97.6884 261.7494 0003134  98.6866 261.4719 15.11459321102084
LEMUR-2-AHMED-ASRAR     
1 60576U 24149DN  26178.74542082  .00011160  00000+0  63652-3 0  9993
2 60576  97.7010 263.8407 0000832  10.7668 349.3580 15.12941933102161
LEMUR-2-LLOYD           
1 60577U 24149DP  26178.71599737  .00010588  00000+0  66524-3 0  9994
2 60577  97.6749 259.8509 0004991 114.2694 245.9057 15.09433425101984
LEMUR-2-SQUIRRELCOMM    
1 60578U 24149DQ  26178.74498905  .00005650  00000+0  37860-3 0  9998
2 60578  97.6717 259.6231 0005758  32.7980 327.3604 15.07268631101991
LEMUR-2-SIERRINI        
1 60579U 24149DR  26178.74715726  .00010575  00000+0  63353-3 0  9990
2 60579  97.6847 261.3865 0006529 135.1863 224.9895 15.11163469102054
LEMUR-2-WILSON          
1 62694U 25009CP  26178.73572313  .00001985  00000+0  18577-3 0  9991
2 62694  97.7026 257.0152 0003400  27.2409 332.8990 14.95207941 78936
LEMUR-2-STAR-FOX        
1 62696U 25009CR  26178.94766098  .00005918  00000+0  44854-3 0  9998
2 62696  97.6957 260.4792 0004386  89.8801 270.2927 15.02631921 79172
LEMUR-2-ARIANNA         
1 62699U 25009CU  26178.94611325  .00007453  00000+0  56351-3 0  9994
2 62699  97.6897 260.2436 0004711  94.4842 265.6921 15.02631646 79176
