OBJECT_NAME,OBJECT_ID,EPOCH,MEAN_MOTION,ECCENTRICITY,INCLINATION,RA_OF_ASC_NODE,ARG_OF_PERICENTER,MEAN_ANOMALY,EPHEMERIS_TYPE,CLASSIFICATION_TYPE,NORAD_CAT_ID,ELEMENT_SET_NO,REV_AT_EPOCH,BSTAR,MEAN_MOTION_DOT,MEAN_MOTION_DDOT
LEMUR-1,2014-033AL,2026-06-27T16:03:04.658688,14.85283177,.00491788,97.7886,328.2414,45.0824,315.4365,0,U,40044,999,64702,.2180783E-3,.1858E-4,0
LEMUR-2-GREENBERG,2017-042N,2026-06-27T17:41:37.583520,15.31642779,.00075553,97.3815,359.3154,333.6954,26.3903,0,U,42837,999,49000,.51647887E-3,.15731E-3,0
LEMUR-2-ANDIS,2017-042P,2026-06-27T19:22:27.759072,15.35260360,.00073758,97.3671,359.6060,330.7052,29.3777,0,U,42838,999,49008,.60834587E-3,.20796E-3,0
LEMUR-2-MONSON,2017-042Q,2026-06-27T18:27:19.575648,15.28306472,.00054051,97.4078,359.3030,324.0937,35.9939,0,U,42839,999,48978,.57285431E-3,.15743E-3,0
LEMUR-2-FURIAUS,2017-042R,2026-06-27T17:43:16.347360,15.30589303,.00074382,97.3764,357.2479,35.0260,325.1469,0,U,42840,999,48982,.57648429E-3,.17005E-3,0
LEMUR-2-PETERG,2017-042S,2026-06-27T11:19:34.307040,15.34313191,.00027281,97.3987,3.5214,308.0048,52.0948,0,U,42841,999,49001,.7544656E-3,.2504E-3,0
LEMUR-2-DEMBITZ,2017-042T,2026-06-27T22:54:00.691488,15.30608431,.00057724,97.3820,0.4943,350.0034,10.1091,0,U,42842,999,48999,.51065799E-3,.15055E-3,0
LEMUR-2-ZACHARY,2017-042W,2026-06-27T18:33:01.512288,15.51176492,.00023121,97.3586,10.6408,340.8500,19.2665,0,U,42845,999,49084,.8010467E-3,.46912E-3,0
LEMUR-2-AMANDA-SVANTE,2021-034B,2026-06-27T17:24:24.086592,15.34917220,.00034126,97.5766,257.2920,181.0802,179.0434,0,U,48269,999,28267,.87535314E-3,.29645E-3,0
LEMUR-2-SPECIAL-K,2021-034F,2026-06-27T18:10:16.111488,15.67706113,.00051279,97.5650,266.4026,221.3302,138.7571,0,U,48273,999,28334,.15461087E-2,.17212E-2,0
LEMUR-2-EMBRIONOVIS,2023-084AQ,2026-06-27T20:58:41.862432,15.37811725,.00074494,97.6294,323.4856,275.9046,84.1349,0,U,56970,999,16932,.37483153E-3,.1386E-3,0
LEMUR-2-DEVERILL-M-T,2023-100F,2026-06-27T15:08:28.827744,15.40255267,.00053488,99.4468,220.4077,13.0218,347.1158,0,U,57391,999,16285,.59208253E-3,.23765E-3,0
LEMUR-2-BASS,2023-174D,2026-06-27T18:42:08.146944,15.43440287,.00080772,97.3854,263.6410,130.2996,229.8959,0,U,58259,999,14699,.39745203E-3,.17726E-3,0
LEMUR-2-JK0903EM1407,2023-174CJ,2026-06-27T20:19:54.202368,15.52216846,.00050049,97.3932,269.6205,88.5300,271.6526,0,U,58336,999,14738,.44868997E-3,.2717E-3,0
LEMUR-2-MJR092620,2023-174CN,2026-06-27T18:43:32.563200,15.45256839,.00067823,97.3985,269.0062,86.1191,274.0833,0,U,58340,999,14728,.40809014E-3,.19356E-3,0
LEMUR-2-NIMBUS2000,2024-022A,2026-06-27T20:43:46.843968,15.40419736,.00101739,97.4101,29.0013,83.9760,276.2645,0,U,58899,999,13391,.54195432E-3,.21911E-3,0
LEMUR-2-VALHALLA,2024-022B,2026-06-27T20:42:01.372032,15.39987720,.00106962,97.4101,28.9846,79.7158,280.5293,0,U,58900,999,13391,.40252826E-3,.16013E-3,0
LEMUR-2-CAEL,2024-022E,2026-06-27T20:43:04.762848,15.41312089,.00088665,97.4080,29.9400,65.8967,294.3206,0,U,58903,999,13398,.41065334E-3,.17061E-3,0
LEMUR-2-JOHNNYTRUONG,2024-043BA,2026-06-27T20:33:23.798880,15.61260013,.0004792,97.5376,331.2261,144.7377,215.4198,0,U,59146,999,12970,.46430969E-3,.3938E-3,0
LEMUR-2-TOMATOKECHUP,2024-149D,2026-06-27T18:58:13.997856,15.36245461,.00023356,97.3805,260.8648,155.5188,204.6167,0,U,60471,999,10379,.30756476E-3,.10788E-3,0
LEMUR-2-STELLA,2024-149BT,2026-06-27T19:16:59.668896,15.12025286,.00013305,97.6741,261.3055,99.3913,260.7468,0,U,60533,999,10210,.60382126E-3,.10315E-3,0
LEMUR-2-MARHISYAM,2024-149BW,2026-06-27T18:54:16.086816,15.11459321,.0003134,97.6884,261.7494,98.6866,261.4719,0,U,60536,999,10208,.63784502E-3,.10732E-3,0
LEMUR-2-AHMED-ASRAR,2024-149DN,2026-06-27T17:53:24.358848,15.12941933,.0000832,97.7010,263.8407,10.7668,349.3580,0,U,60576,999,10216,.63651882E-3,.1116E-3,0
LEMUR-2-LLOYD,2024-149DP,2026-06-27T17:11:02.172768,15.09433425,.00049917,97.6749,259.8509,114.2694,245.9057,0,U,60577,999,10198,.66523538E-3,.10588E-3,0
LEMUR-2-SQUIRRELCOMM,2024-149DQ,2026-06-27T17:52:47.053920,15.07268631,.00057583,97.6717,259.6231,32.7980,327.3604,0,U,60578,999,10199,.37860497E-3,.565E-4,0
LEMUR-2-SIERRINI,2024-149DR,2026-06-27T17:55:54.387264,15.11163469,.00065299,97.6847,261.3865,135.1863,224.9895,0,U,60579,999,10205,.63353399E-3,.10575E-3,0
LEMUR-2-WILSON,2025-009CP,2026-06-27T17:39:26.478432,14.95207941,.00034008,97.7026,257.0152,27.2409,332.8990,0,U,62694,999,7893,.18576668E-3,.1985E-4,0
LEMUR-2-STAR-FOX,2025-009CR,2026-06-27T22:44:37.908672,15.02631921,.00043865,97.6957,260.4792,89.8801,270.2927,0,U,62696,999,7917,.44853541E-3,.5918E-4,0
LEMUR-2-ARIANNA,2025-009CU,2026-06-27T22:42:24.184800,15.02631646,.00047112,97.6897,260.2436,94.4842,265.6921,0,U,62699,999,7917,.56351359E-3,.7453E-4,0
